SKYSAT-A                
1 39418U 13066C   26202.11753306  .00001920  00000+0  11144-3 0  9994
2 39418  97.3797 250.4333 0021024 192.3397 167.7323 15.13136302693611
SKYSAT-B                
1 40072U 14037D   26202.14957306  .00000818  00000+0  95544-4 0  9992
2 40072  98.3858 163.0566 0005991 154.4233 205.7280 14.88101239651013
SKYSAT-C1               
1 41601U 16040C   26202.07998591  .00006472  00000+0  18201-3 0  9996
2 41601  96.9554 231.9715 0000723 194.3527 165.7699 15.36809315563078
SKYSAT-C4               
1 41771U 16058B   26202.30958103  .00013269  00000+0  24184-3 0  9993
2 41771  96.9175 222.6746 0003526 109.4155 250.7479 15.49568378550751
SKYSAT-C5               
1 41772U 16058C   26202.08311457  .00005301  00000+0  16460-3 0  9990
2 41772  97.0452 241.1966 0003185 146.5014 213.6431 15.33768983548940
SKYSAT-C2               
1 41773U 16058D   26202.05911285  .00008900  00000+0  20540-3 0  9995
2 41773  97.0165 222.8935 0000726 306.0371  54.0810 15.42765503550273
SKYSAT-C3               
1 41774U 16058E   26202.03037627  .00017145  00000+0  26757-3 0  9990
2 41774  96.9000 231.6037 0002779 125.8983 234.2530 15.53879483551364
SKYSAT-C11              
1 42987U 17068A   26202.14524495  .00023423  00000+0  29603-3 0  9994
2 42987  97.4387 352.5062 0001487 151.5887 208.5451 15.59545665488532
SKYSAT-C10              
1 42988U 17068B   26202.25727261  .00008155  00000+0  24107-3 0  9992
2 42988  97.4542 339.4579 0001547 110.1118 250.0292 15.35193975487584
SKYSAT-C9               
1 42989U 17068C   26202.11389700  .00009351  00000+0  21898-3 0  9993
2 42989  97.4465 340.5776 0008129  25.0277 335.1363 15.42303983487982
SKYSAT-C8               
1 42990U 17068D   26201.91589708  .00007342  00000+0  20151-3 0  9991
2 42990  97.4560 339.0428 0001308 107.1679 252.9709 15.37560720487491
SKYSAT-C7               
1 42991U 17068E   26202.17089189  .00007563  00000+0  20775-3 0  9996
2 42991  97.4571 340.2937 0005145   0.3290 359.7957 15.37514061487598
SKYSAT-C6               
1 42992U 17068F   26202.25872940  .00006821  00000+0  20821-3 0  9999
2 42992  97.4610 340.2089 0004913  73.7370 286.4413 15.34234710487541
SKYSAT-C12              
1 43797U 18099AR  26202.00024419  .00013133  00000+0  23646-3 0  9993
2 43797  96.9259 223.8993 0004883  57.5086 302.6638 15.49913041427099
